2022-019T               
1 51841U 22019T   22062.21327499  .00003530  00000+0  22137-3 0  9990
2 51841  97.5214 138.9386 0014011 258.6254 101.3402 15.09897986   616
2022-019U               
1 51842U 22019U   22061.78665588  .00004317  00000+0  17956-3 0  9993
2 51842  97.5686 138.6216 0071267 200.4054 159.4299 15.22010374   552
2022-019V               
1 51843U 22019V   22062.21306994  .00003061  00000+0  19208-3 0  9993
2 51843  97.5246 138.9406 0014449 265.7327  94.2251 15.09970838   611
2022-019W               
1 51844U 22019W   22061.95025937  .00002407  00000+0  15550-3 0  9998
2 51844  97.5216 138.6765 0017040 264.4886  95.4399 15.09065270   475
2022-019X               
1 51845U 22019X   22062.21393200  .00004065  00000+0  25590-3 0  9997
2 51845  97.5218 138.9388 0015241 260.6004  99.3503 15.09654022   539
2022-019Y               
1 51846U 22019Y   22062.21379440  .00003489  00000+0  21989-3 0  9995
2 51846  97.5198 138.9419 0015128 258.5422 101.4110 15.09703299   536
STRIX-BETA              
1 51847U 22020A   22062.15447989 -.00000062  00000+0  00000+0 0  9997
2 51847  97.7759 115.9275 0013077 284.9391  75.0386 15.00976820   349
ELECTRON KICK STAGE     
1 51848U 20020B   22062.19750331  .00004610  00000+0  22750-3 0  9990
2 51848  97.0931 115.0315 0060685  23.3714 337.0256 15.16719723   354
ELECTRON STAGE 2        
1 51849U 20020C   22062.19827270  .01083725  23419-5  10319-2 0  9995
2 51849  97.7335 116.0638 0296823 214.4736 143.6962 15.61695545   351
2022-021A               
1 51850U 22022A   22061.41360573 -.00000181  00000+0  00000+0 0  9996
2 51850   9.4244 334.3871 4633726 179.7628 337.5126  1.80775061    17
2022-021B               
1 51851U 22022B   22061.16528521 -.00000182  00000+0  00000+0 0  9999
2 51851   9.3750 334.5324 4632108 179.5801 175.9040  1.80759695    01
